DELTA 2 R/B(1)          
1 20453U 90008B   25356.18135606  .00045731  00000+0  71322-3 0  9999
2 20453  35.6079 319.5298 0110837 264.1613  94.6476 15.45945386914095
COSMOS 2058             
1 20465U 90010A   25356.09840386  .00005145  00000+0  30996-3 0  9990
2 20465  82.4704 123.8256 0009159 236.1266 123.9093 15.10558143930520
SL-14 R/B               
1 20466U 90010B   25356.25604006  .00000446  00000+0  51234-4 0  9994
2 20466  82.5021 340.1089 0019440 190.5144 169.5668 14.83479783917007
SL-14 R/B               
1 20511U 90018B   25356.26688498  .00000491  00000+0  58814-4 0  9992
2 20511  82.5219 295.4602 0016177 352.5884   7.5089 14.82056118911111
HST                     
1 20580U 90037B   25356.26182927  .00006554  00000+0  22399-3 0  9999
2 20580  28.4658 207.6710 0002228 354.1662   5.8907 15.28167201761459
SL-16 R/B               
1 20625U 90046B   25355.72384766 -.00000247  00000+0 -10282-3 0  9997
2 20625  70.9993 101.6548 0012071  57.4695 302.7592 14.14998422837365
COSMOS 2084             
1 20663U 90055A   25356.06911862  .00002608  00000+0  19505-3 0  9998
2 20663  62.7893 240.2039 0030205 175.9512 184.1839 15.05070935924637
SL-6 R/B(2)             
1 20666U 90055D   25356.14768523  .00001944  00000+0  15769-3 0  9994
2 20666  62.7811 157.4476 0013749 315.2546  44.7443 15.03114929926537
SL-8 R/B                
1 20775U 90078B   25356.15735019  .00017330  00000+0  53566-3 0  9998
2 20775  82.9057 320.8773 0370507 274.2000  81.6966 14.86273173797776
SL-8 R/B                
1 21088U 91006B   25356.20541339  .00000123  00000+0  10861-3 0  9997
2 21088  82.9418 227.6721 0021197 251.6702 228.0258 13.77491851753405
OKEAN-3                 
1 21397U 91039A   25356.19519015  .00002712  00000+0  19313-3 0  9997
2 21397  82.5170  51.8958 0013553 229.8358 130.1682 15.04177527853384
COSMOS 2151             
1 21422U 91042A   25356.16439131  .00001645  00000+0  13101-3 0  9990
2 21422  82.4963 158.4205 0011807 326.8457  33.2026 14.99720563851570
